HAWK-11A                
1 62382U 24247F   26068.51231358  .00009457  00000+0  34106-3 0  9991
2 62382  44.9941 114.3328 0005466 327.3713  32.6832 15.28849427 67741
STARLINK-35410          
1 66024U 25232V   26068.38372192  .00015825  00000+0  54528-3 0  9996
2 66024  53.1578 104.9751 0001238  87.7374 272.3769 15.30201096 23396
